$$SOE
2460154.500000000, A.D. 2023-Jul-29 00:00:00.0000, 3.494227801925547E+08, 1.461066441488527E+08, 1.799671778774768E+06,
2460161.500000000, A.D. 2023-Aug-05 00:00:00.0000, 3.438499836438229E+08, 1.571047592458364E+08, 1.941131661637932E+06,
2460168.500000000, A.D. 2023-Aug-12 00:00:00.0000, 3.379684666897187E+08, 1.679619077557233E+08, 2.080833689822406E+06,
2460175.500000000, A.D. 2023-Aug-19 00:00:00.0000, 3.317819782733883E+08, 1.786675693288884E+08, 2.218642808071874E+06,
2460182.500000000, A.D. 2023-Aug-26 00:00:00.0000, 3.252947384082211E+08, 1.892113374427980E+08, 2.354425365122080E+06,
2460189.500000000, A.D. 2023-Sep-02 00:00:00.0000, 3.185114346996221E+08, 1.995829470674981E+08, 2.488049471325904E+06,
2460196.500000000, A.D. 2023-Sep-09 00:00:00.0000, 3.114372168254001E+08, 2.097723021641781E+08, 2.619385344216943E+06,
2460203.500000000, A.D. 2023-Sep-16 00:00:00.0000, 3.040776891362522E+08, 2.197695027739486E+08, 2.748305619559214E+06,
2460210.500000000, A.D. 2023-Sep-23 00:00:00.0000, 2.964389018068470E+08, 2.295648717947061E+08, 2.874685610610321E+06,
2460217.500000000, A.D. 2023-Sep-30 00:00:00.0000, 2.885273402291276E+08, 2.391489824430014E+08, 2.998403641093299E+06,
2460224.500000000, A.D. 2023-Oct-07 00:00:00.0000, 2.803499103383286E+08, 2.485126856673783E+08, 3.119341620940298E+06,
2460231.500000000, A.D. 2023-Oct-14 00:00:00.0000, 2.719139209800774E+08, 2.576471340217461E+08, 3.237385496878281E+06,
2460238.500000000, A.D. 2023-Oct-21 00:00:00.0000, 2.632270666379659E+08, 2.665438034282254E+08, 3.352425410366133E+06,
2460245.500000000, A.D. 2023-Oct-28 00:00:00.0000, 2.542974092016155E+08, 2.751945149261319E+08, 3.464355876443103E+06,
2460252.500000000, A.D. 2023-Nov-04 00:00:00.0000, 2.451333576498993E+08, 2.835914554893056E+08, 3.573076034196347E+06,
2460259.500000000, A.D. 2023-Nov-11 00:00:00.0000, 2.357436459707357E+08, 2.917271971773971E+08, 3.678489902544588E+06,
2460266.500000000, A.D. 2023-Nov-18 00:00:00.0000, 2.261373096933234E+08, 2.995947144350352E+08, 3.780506614743471E+06,
2460273.500000000, A.D. 2023-Nov-25 00:00:00.0000, 2.163236612703192E+08, 3.071873994557704E+08, 3.879040625532091E+06,
2460280.500000000, A.D. 2023-Dec-02 00:00:00.0000, 2.063122645095967E+08, 3.144990755135411E+08, 3.974011886348501E+06,
2460287.500000000, A.D. 2023-Dec-09 00:00:00.0000, 1.961129083110976E+08, 3.215240081383922E+08, 4.065345975890383E+06,
2460294.500000000, A.D. 2023-Dec-16 00:00:00.0000, 1.857355801795147E+08, 3.282569141069802E+08, 4.152974160221085E+06,
2460301.500000000, A.D. 2023-Dec-23 00:00:00.0000, 1.751904400491164E+08, 3.346929689146258E+08, 4.236833406290174E+06,
2460308.500000000, A.D. 2023-Dec-30 00:00:00.0000, 1.644877932691889E+08, 3.408278137731231E+08, 4.316866557070300E+06,
2460315.500000000, A.D. 2024-Jan-06 00:00:00.0000, 1.536380611575159E+08, 3.466575597844043E+08, 4.393022638230279E+06,
2460322.500000000, A.D. 2024-Jan-13 00:00:00.0000, 1.426517524704236E+08, 3.521787875217116E+08, 4.465256858562708E+06,
2460329.500000000, A.D. 2024-Jan-20 00:00:00.0000, 1.315394371882415E+08, 3.573885451574550E+08, 4.533530444094405E+06,
2460336.500000000, A.D. 2024-Jan-27 00:00:00.0000, 1.203117207494831E+08, 3.622843458538132E+08, 4.597810545557037E+06,
2460343.500000000, A.D. 2024-Feb-03 00:00:00.0000, 1.089792184542244E+08, 3.668641635475435E+08, 4.658070181859955E+06,
2460350.500000000, A.D. 2024-Feb-10 00:00:00.0000, 9.755253045167647E+07, 3.711264269325823E+08, 4.714288171378523E+06,
2460357.500000000, A.D. 2024-Feb-17 00:00:00.0000, 8.604221757567741E+07, 3.750700117543374E+08, 4.766449040145665E+06,
2460364.500000000, A.D. 2024-Feb-24 00:00:00.0000, 7.445877817525129E+07, 3.786942315455469E+08, 4.814542906151444E+06,
2460371.500000000, A.D. 2024-Mar-02 00:00:00.0000, 6.281262606632085E+07, 3.819988268934679E+08, 4.858565335834712E+06,
2460378.500000000, A.D. 2024-Mar-09 00:00:00.0000, 5.111406982522684E+07, 3.849839533032336E+08, 4.898517156444758E+06,
2460385.500000000, A.D. 2024-Mar-16 00:00:00.0000, 3.937329388617423E+07, 3.876501679865154E+08, 4.934404205784231E+06,
2460392.500000000, A.D. 2024-Mar-23 00:00:00.0000, 2.760034139199363E+07, 3.899984168197812E+08, 4.966237121016711E+06,
2460399.500000000, A.D. 2024-Mar-30 00:00:00.0000, 1.580509659824521E+07, 3.920300215784509E+08, 4.994031371240735E+06,
2460406.500000000, A.D. 2024-Apr-06 00:00:00.0000, 3.997267110949457E+06, 3.937466642051970E+08, 5.017807237001300E+06,
2460413.500000000, A.D. 2024-Apr-13 00:00:00.0000, -7.813630483281676E+06, 3.951503690794129E+08, 5.037589481473893E+06,
2460420.500000000, A.D. 2024-Apr-20 00:00:00.0000, -1.961828254551882E+07, 3.962434860946892E+08, 5.053407020684093E+06,
2460427.500000000, A.D. 2024-Apr-27 00:00:00.0000, -3.140758939754150E+07, 3.970286741018951E+08, 5.065292687390625E+06,
2460434.500000000, A.D. 2024-May-04 00:00:00.0000, -4.317267535344024E+07, 3.975088841271457E+08, 5.073283024678230E+06,
2460441.500000000, A.D. 2024-May-11 00:00:00.0000, -5.490489756244073E+07, 3.976873423703845E+08, 5.077418080610752E+06,
2460448.500000000, A.D. 2024-May-18 00:00:00.0000, -6.659585361966672E+07, 3.975675331071020E+08, 5.077741199629486E+06,
2460455.500000000, A.D. 2024-May-25 00:00:00.0000, -7.823738796555054E+07, 3.971531815795578E+08, 5.074298809211046E+06,
2460462.500000000, A.D. 2024-Jun-01 00:00:00.0000, -8.982159706508230E+07, 3.964482369057997E+08, 5.067140192884445E+06,
2460469.500000000, A.D. 2024-Jun-08 00:00:00.0000, -1.013408331760188E+08, 3.954568550612045E+08, 5.056317226329178E+06,
2460476.500000000, A.D. 2024-Jun-15 00:00:00.0000, -1.127877063654890E+08, 3.941833825472740E+08, 5.041884085520267E+06,
2460483.500000000, A.D. 2024-Jun-22 00:00:00.0000, -1.241550858412466E+08, 3.926323419851351E+08, 5.023897115978658E+06,
2460490.500000000, A.D. 2024-Jun-29 00:00:00.0000, -1.354361027792732E+08, 3.908084178650302E+08, 5.002414909566134E+06,
2460497.500000000, A.D. 2024-Jul-06 00:00:00.0000, -1.466241520652990E+08, 3.887164400181161E+08, 4.977498145407110E+06,
2460504.500000000, A.D. 2024-Jul-13 00:00:00.0000, -1.577128910712366E+08, 3.863613676690034E+08, 4.949209248082876E+06,
2460511.500000000, A.D. 2024-Jul-20 00:00:00.0000, -1.686962375212988E+08, 3.837482752526354E+08, 4.917612139577746E+06,
2460518.500000000, A.D. 2024-Jul-27 00:00:00.0000, -1.795683671692551E+08, 3.808823390638336E+08, 4.882772067056298E+06,
2460525.500000000, A.D. 2024-Aug-03 00:00:00.0000, -1.903237110773665E+08, 3.777688243859396E+08, 4.844755450973421E+06,
2460532.500000000, A.D. 2024-Aug-10 00:00:00.0000, -2.009569523919719E+08, 3.744130731097143E+08, 4.803629737881809E+06,
2460539.500000000, A.D. 2024-Aug-17 00:00:00.0000, -2.114630226264448E+08, 3.708204918736556E+08, 4.759463255177379E+06,
2460546.500000000, A.D. 2024-Aug-24 00:00:00.0000, -2.218370974794550E+08, 3.669965407072869E+08, 4.712325063166097E+06,
2460553.500000000, A.D. 2024-Aug-31 00:00:00.0000, -2.320745921264609E+08, 3.629467221150881E+08, 4.662284788563997E+06,
2460560.500000000, A.D. 2024-Sep-07 00:00:00.0000, -2.421711556701207E+08, 3.586765707227381E+08, 4.609412415963650E+06,
2460567.500000000, A.D. 2024-Sep-14 00:00:00.0000, -2.521226647134289E+08, 3.541916444738712E+08, 4.553778110531330E+06,
2460574.500000000, A.D. 2024-Sep-21 00:00:00.0000, -2.619252181312146E+08, 3.494975177810696E+08, 4.495452291298568E+06,
2460581.500000000, A.D. 2024-Sep-28 00:00:00.0000, -2.715751335689210E+08, 3.445997733924377E+08, 4.434505735549137E+06,
2460588.500000000, A.D. 2024-Oct-05 00:00:00.0000, -2.810689420360246E+08, 3.395039929580874E+08, 4.371009377794549E+06,
2460595.500000000, A.D. 2024-Oct-12 00:00:00.0000, -2.904033809931629E+08, 3.342157492586790E+08, 4.305034079781696E+06,
2460602.500000000, A.D. 2024-Oct-19 00:00:00.0000, -2.995753877193219E+08, 3.287405998097806E+08, 4.236650509525478E+06,
2460609.500000000, A.D. 2024-Oct-26 00:00:00.0000, -3.085820930215853E+08, 3.230840810229732E+08, 4.165929066530600E+06,
2460616.500000000, A.D. 2024-Nov-02 00:00:00.0000, -3.174208150574788E+08, 3.172517027555068E+08, 4.092939817283615E+06,
2460623.500000000, A.D. 2024-Nov-09 00:00:00.0000, -3.260890531985071E+08, 3.112489432488689E+08, 4.017752433654860E+06,
2460630.500000000, A.D. 2024-Nov-16 00:00:00.0000, -3.345844819317972E+08, 3.050812444360352E+08, 3.940436131655902E+06,
2460637.500000000, A.D. 2024-Nov-23 00:00:00.0000, -3.429049447733264E+08, 2.987540075468754E+08, 3.861059601979762E+06,
2460644.500000000, A.D. 2024-Nov-30 00:00:00.0000, -3.510484480025155E+08, 2.922725889483309E+08, 3.779690909564525E+06,
2460651.500000000, A.D. 2024-Dec-07 00:00:00.0000, -3.590131538147476E+08, 2.856422966191102E+08, 3.696397357944846E+06,
2460658.500000000, A.D. 2024-Dec-14 00:00:00.0000, -3.667973735950822E+08, 2.788683884621979E+08, 3.611245481429130E+06,
2460665.500000000, A.D. 2024-Dec-21 00:00:00.0000, -3.743995636454620E+08, 2.719560711952111E+08, 3.524301276135772E+06,
2460672.500000000, A.D. 2024-Dec-28 00:00:00.0000, -3.818183214029767E+08, 2.649104968330100E+08, 3.435630246369734E+06,
2460679.500000000, A.D. 2025-Jan-04 00:00:00.0000, -3.890523795587180E+08, 2.577367591180632E+08, 3.345297222495511E+06,
2460686.500000000, A.D. 2025-Jan-11 00:00:00.0000, -3.961005999070141E+08, 2.504398915382098E+08, 3.253366253014848E+06,
2460693.500000000, A.D. 2025-Jan-18 00:00:00.0000, -4.029619678499952E+08, 2.430248659959818E+08, 3.159900579732016E+06,
2460700.500000000, A.D. 2025-Jan-25 00:00:00.0000, -4.096355873191221E+08, 2.354965916385598E+08, 3.064962634891734E+06,
2460707.500000000, A.D. 2025-Feb-01 00:00:00.0000, -4.161206759277110E+08, 2.278599138017819E+08, 2.968614040513709E+06,
2460714.500000000, A.D. 2025-Feb-08 00:00:00.0000, -4.224165602986969E+08, 2.201196130720000E+08, 2.870915606209740E+06,
2460721.500000000, A.D. 2025-Feb-15 00:00:00.0000, -4.285226715404871E+08, 2.122804044307380E+08, 2.771927321187168E+06,
$$EOE